STARLINK-35548          
1 66203U 25243AC  26109.11899779  .00015357  00000+0  52928-3 0  9991
2 66203  53.1623  57.4567 0002033 105.9391 254.1834 15.30217780 26840
STARLINK-35490          
1 66204U 25243AD  26109.12534435  .00023582  00000+0  80596-3 0  9999
2 66204  53.1614  57.4985 0001742 102.9200 257.1996 15.30193745 26843
STARLINK-35748          
1 66206U 25244A   26109.08308773  .00022921  00000+0  78306-3 0  9993
2 66206  53.1618  42.3116 0001380  89.1947 270.9212 15.30223332 27841
STARLINK-35747          
1 66207U 25244B   26109.18321994  .00016282  00000+0  56040-3 0  9999
2 66207  53.1616  42.1672 0001386  90.8075 269.3085 15.30215599 27859
STARLINK-35751          
1 66208U 25244C   26109.06620396  .00021586  00000+0  73860-3 0  9997
2 66208  53.1602  42.2039 0001374 114.0543 246.0602 15.30209365 27849
STARLINK-35750          
1 66209U 25244D   26109.18731304 -.00006876  00000+0 -22025-3 0  9997
2 66209  53.1605  41.5399 0001458  74.5066 285.6095 15.30199038 27869
STARLINK-35740          
1 66210U 25244E   26109.19050010  .00010428  00000+0  36362-3 0  9993
2 66210  53.1620  41.5580 0001229  95.6049 264.5092 15.30206689 27865
STARLINK-35723          
1 66211U 25244F   26109.18418683  .00027045  00000+0  92261-3 0  9990
2 66211  53.1610  41.5163 0001522  69.9813 290.1351 15.30175327 27857
STARLINK-35710          
1 66212U 25244G   26109.10630243  .00017995  00000+0  61768-3 0  9992
2 66212  53.1616  42.4527 0002136  89.5311 270.5935 15.30228637 27843
STARLINK-34204          
1 66213U 25244H   26109.18098377  .00029581  00000+0  10051-2 0  9999
2 66213  53.1598  41.4993 0001025 111.7747 248.3363 15.30258275 27867
STARLINK-35714          
1 66214U 25244J   26109.18005800  .00020132  00000+0  68956-3 0  9990
2 66214  53.1583  42.2005 0000803  97.1160 262.9932 15.30220690 27857
STARLINK-35712          
1 66215U 25244K   26109.19261377  .00020195  00000+0  69227-3 0  9996
2 66215  53.1621  41.5667 0001512  80.8051 279.3121 15.30192821 27860
STARLINK-35709          
1 66216U 25244L   26109.09576522  .00026031  00000+0  88743-3 0  9996
2 66216  53.1600  42.3875 0001165  85.1478 274.9655 15.30218346 27845
STARLINK-35700          
1 66217U 25244M   26109.08941897  .00024430  00000+0  83375-3 0  9994
2 66217  53.1620  42.3482 0001061  88.4417 271.6706 15.30219591 27839
STARLINK-35722          
1 66218U 25244N   26109.20105438  .00011516  00000+0  40030-3 0  9994
2 66218  53.1608  41.6221 0001253  82.9296 277.1847 15.30202688 27865
STARLINK-35737          
1 66219U 25244P   26109.19894278  .00017582  00000+0  60398-3 0  9998
2 66219  53.1610  41.6082 0001140  81.5308 278.5821 15.30218927 27868
STARLINK-35677          
1 66220U 25244Q   26109.18944322  .00028634  00000+0  97471-3 0  9997
2 66220  53.1629  41.5474 0000785 108.1471 251.9615 15.30215489 27861
STARLINK-35704          
1 66221U 25244R   26109.08732204  .00025590  00000+0  87322-3 0  9993
2 66221  53.1622  42.3322 0001691  91.7341 268.3854 15.30196932 27842
STARLINK-35666          
1 66222U 25244S   26109.09047334  .00015672  00000+0  53983-3 0  9994
2 66222  53.1620  42.3472 0001572  92.1449 267.9732 15.30219285 27846
STARLINK-35664          
1 66223U 25244T   26109.09680690  .00016512  00000+0  56803-3 0  9991
2 66223  53.1618  42.3904 0001629  90.1095 270.0093 15.30218912 27843
STARLINK-35733          
1 66224U 25244U   26109.11052378  .00017247  00000+0  59269-3 0  9996
2 66224  53.1624  42.4744 0001854  85.2995 274.8218 15.30221949 27843
STARLINK-35734          
1 66225U 25244V   26109.09363841  .00015707  00000+0  54102-3 0  9994
2 66225  53.1619  42.3714 0001368  89.4437 270.6721 15.30218914 27842
STARLINK-34466          
1 66226U 25244W   26109.07781132  .00017332  00000+0  59571-3 0  9991
2 66226  53.1631  42.2691 0001700  97.5993 262.5200 15.30212803 27840
STARLINK-34882          
1 66227U 25244X   26109.20526806  .00012329  00000+0  42750-3 0  9994
2 66227  53.1614  41.6405 0000648 135.8795 224.2258 15.30213885 27865
STARLINK-35731          
1 66228U 25244Y   26109.20210963  .00012206  00000+0  42355-3 0  9994
2 66228  53.1622  41.6247 0001287  86.0702 274.0446 15.30199931 27861
STARLINK-35758          
1 66229U 25244Z   26109.06936450  .00022233  00000+0  75991-3 0  9998
2 66229  53.1625  42.2145 0001509 100.8023 259.3148 15.30226201 27841
STARLINK-35736          
1 66230U 25244AA  26109.15156869  .00015717  00000+0  54161-3 0  9993
2 66230  53.1610  42.0182 0001323  97.6447 262.4704 15.30203141 27855
STARLINK-35735          
1 66231U 25244AB  26109.19366341  .00016250  00000+0  55925-3 0  9998
2 66231  53.1635  41.5663 0000952 109.6141 250.4963 15.30217880 27863
STARLINK-35753          
1 66232U 25244AC  26109.11263616  .00015086  00000+0  52015-3 0  9995
2 66232  53.1610  42.4859 0002112  88.1846 271.9397 15.30217699 27842
STARLINK-35626          
1 66233U 25244AD  26109.10946920  .00015800  00000+0  54423-3 0  9990
2 66233  53.1611  42.4625 0000917  30.7183 329.3871 15.30213198 27848
STARLINK-35537          
1 66234U 25245A   26109.21654066  .00014965  00000+0  51621-3 0  9999
2 66234  53.1596  95.4887 0000952 131.3865 228.7218 15.30210500 27462
STARLINK-35541          
1 66235U 25245B   26108.69086042  .00017648  00000+0  60623-3 0  9997
2 66235  53.1576  97.8969 0001623  84.3883 275.7303 15.30217057 27338
STARLINK-35454          
1 66236U 25245C   26108.98694087  .00008231  00000+0  28969-3 0  9999
2 66236  53.1561  96.8983 0000648  61.5319 298.5747 15.30204111 27269
STARLINK-35557          
1 66237U 25245D   26108.98377292  .00014628  00000+0  50470-3 0  9995
2 66237  53.1584  96.8810 0001533  50.9190 309.1947 15.30220381 27423
STARLINK-35556          
1 66238U 25245E   26109.11230549  .00028858  00000+0  98312-3 0  9992
2 66238  53.1581  96.2598 0001312  96.7965 263.3185 15.30185796 27448
STARLINK-35554          
1 66239U 25245F   26109.11018416  .00024991  00000+0  85282-3 0  9996
2 66239  53.1587  96.2435 0001190  90.0347 270.0790 15.30209754 27280
STARLINK-35546          
1 66240U 25245G   26108.68980105  .00014682  00000+0  50655-3 0  9994
2 66240  53.1602  97.8882 0001094  87.4911 272.6215 15.30219678 27380
STARLINK-35497          
1 66241U 25245H   26108.68558349  .00019115  00000+0  65559-3 0  9991
2 66241  53.1591  97.8605 0001556  85.9079 274.2100 15.30212006 27336
STARLINK-35480          
1 66242U 25245J   26108.99960485  .00014997  00000+0  51726-3 0  9998
2 66242  53.1584  96.9776 0001603  90.5886 269.5298 15.30212378 27426
STARLINK-35495          
1 66243U 25245K   26108.94367435  .00018706  00000+0  64181-3 0  9991
2 66243  53.1581  96.6282 0001472  95.2274 264.8895 15.30215436 27418
STARLINK-35517          
1 66244U 25245L   26108.67608376  .00011229  00000+0  39049-3 0  9992
2 66244  53.1590  97.8023 0001579  79.0415 281.0763 15.30216334 27176
STARLINK-35503          
1 66245U 25245M   26108.93113774  .00008081  00000+0  28478-3 0  9991
2 66245  53.1582  97.2603 0002378  85.0113 275.1159 15.30189210 27362
STARLINK-35434          
1 66246U 25245N   26109.10701860  .00017387  00000+0  59754-3 0  9991
2 66246  53.1589  96.2247 0001426  81.1887 278.9275 15.30213212 27237
STARLINK-35481          
1 66247U 25245P   26108.97322507  .00019221  00000+0  65913-3 0  9996
2 66247  53.1587  96.8088 0001205  88.9837 271.1302 15.30213489 27423
STARLINK-35416          
1 66248U 25245Q   26109.23131619  .00013481  00000+0  46646-3 0  9993
2 66248  53.1596  95.5764 0001364  99.1247 260.9908 15.30200270 27406
STARLINK-35304          
1 66249U 25245R   26109.21865234  .00014921  00000+0  51468-3 0  9997
2 66249  53.1579  95.4958 0001684 102.5713 257.5476 15.30212865 27241
STARLINK-35338          
1 66250U 25245S   26109.22814466  .00019789  00000+0  67888-3 0  9991
2 66250  53.1601  95.5590 0000625  67.5456 292.5611 15.30181484 27365
STARLINK-35485          
1 66251U 25245T   26109.22181714  .00009140  00000+0  32029-3 0  9994
2 66251  53.1616  95.5151 0000889 124.5068 235.6017 15.30203764 27241
STARLINK-35483          
1 66252U 25245U   26108.68452596  .00011307  00000+0  39310-3 0  9991
2 66252  53.1579  97.8518 0001488  75.3259 284.7907 15.30216257 27337
STARLINK-35486          
1 66253U 25245V   26109.10490684  .00018728  00000+0  64254-3 0  9999
2 66253  53.1581  96.2069 0001237  84.0868 276.0273 15.30216109 27235
STARLINK-35488          
1 66254U 25245W   26109.10807529  .00012034  00000+0  41778-3 0  9990
2 66254  53.1583  96.2264 0001231  70.1098 290.0036 15.30200229 27442
STARLINK-35616          
1 66255U 25245X   26108.98482970  .00021871  00000+0  74793-3 0  9997
2 66255  53.1567  96.8745 0001244  32.2611 327.8465 15.30219145 27429
STARLINK-35619          
1 66256U 25245Y   26108.48119584  .00011141  00000+0  38754-3 0  9997
2 66256  53.1596  98.7124 0001653  65.3785 294.7388 15.30214587 27350
STARLINK-35615          
1 66257U 25245Z   26108.22627174  .00007914  00000+0  27889-3 0  9999
2 66257  53.1576  99.9660 0001141  64.5340 295.5779 15.30218923 27314
STARLINK-34650          
1 66258U 25245AA  26108.68663593  .00020032  00000+0  68629-3 0  9998
2 66258  53.1578  97.8627 0001080  73.8489 286.2630 15.30216690 27385
STARLINK-35529          
1 66259U 25245AB  26109.22605986  .00027416  00000+0  93443-3 0  9997
2 66259  53.1595  95.5398 0001036  83.5955 276.5164 15.30197459 27466
STARLINK-35420          
1 66260U 25245AC  26109.22920419  .00009914  00000+0  34637-3 0  9993
2 66260  53.1597  95.5567 0001426 107.2215 252.8941 15.30203584 27461
STARLINK-35536          
1 66261U 25245AD  26109.21970781  .00029272  00000+0  99576-3 0  9992
2 66261  53.1595  95.4983 0001715 110.1504 249.9681 15.30225282 27463
STARLINK-35487          
1 66262U 25245AE  26109.22497486  .00006478  00000+0  23060-3 0  9998
2 66262  53.1591  95.5292 0002329  99.7796 260.3468 15.30207046 27414
